25417,ORBCOMM FM16,1998,100.14,-1.0,-,44.99,Inactive,0,LEO,Eastern Range Airspace,ORBCOMM,Unknown,Unknown,Unknown,1 25417U 98046E   25005.53661907  .00002724  00000+0  93834-3 0  9999,2 25417  44.9916 224.7687 0004190 186.9434 173.1356 14.38012019380836,14.38012019,0.000419,LEO
25418,ORBCOMM FM15,1998,100.16,45.0,-,44.99,Inactive,1,LEO,Eastern Range Airspace,ORBCOMM,Commercial,Communications,Pegasus,1 25418U 98046F   25005.33541427  .00002898  00000+0  10016-2 0  9994,2 25418  44.9948 230.4015 0003669 186.9205 173.1592 14.37693838380809,14.37693838,0.0003669,LEO
25419,ORBCOMM FM14,1998,100.14,45.0,-,44.99,Inactive,1,LEO,Eastern Range Airspace,ORBCOMM,Commercial,Communications,Pegasus,1 25419U 98046G   25005.32150016  .00002996  00000+0  10279-2 0  9994,2 25419  44.9936 229.1367 0002753 172.7547 187.3341 14.37990340380769,14.3799034,0.0002753,LEO
25475,ORBCOMM FM21,1998,100.23,45.0,-,45.01,Inactive,1,LEO,Eastern Range Airspace,ORBCOMM,Commercial,Communications,Pegasus,1 25475U 98053A   25005.34738485  .00003237  00000+0  11355-2 0  9993,2 25475  45.0090 320.3040 0000809 346.4288  13.6538 14.36715467373820,14.36715467,8.09e-05,LEO
25476,ORBCOMM FM22,1998,100.17,-1.0,-,45.01,Inactive,0,LEO,Eastern Range Airspace,ORBCOMM,Unknown,Unknown,Unknown,1 25476U 98053B   25005.83987654  .00003318  00000+0  11430-2 0  9996,2 25476  45.0082 314.0258 0001543  95.2002 264.9022 14.37562089374261,14.37562089,0.0001543,LEO
25477,ORBCOMM FM23,1998,100.22,45.0,-,45.01,Inactive,1,LEO,Eastern Range Airspace,ORBCOMM,Commercial,Communications,Pegasus,1 25477U 98053C   25005.36518450  .00003090  00000+0  10838-2 0  9997,2 25477  45.0090 322.5316 0000799  61.4523 298.6405 14.36829103373973,14.36829103,7.99e-05,LEO
25420,ORBCOMM FM13,1998,100.21,45.0,-,45.0,Inactive,1,LEO,Eastern Range Airspace,ORBCOMM,Commercial,Communications,Pegasus,1 25420U 98046H   25005.79019107  .00002372  00000+0  84120-3 0  9997,2 25420  44.9956 233.4151 0004709 173.1251 186.9662 14.36931576381006,14.36931576,0.0004709,LEO
25416,ORBCOMM FM20,1998,100.24,45.0,+,44.99,Active,1,LEO,Eastern Range Airspace,ORBCOMM,Commercial,Communications,Pegasus,1 25416U 98046D   25005.36033148  .00002419  00000+0  86319-3 0  9990,2 25416  44.9923 232.0374 0000698 120.4629 239.6288 14.36569278380841,14.36569278,6.98e-05,LEO
